[{"OBJECT_NAME":"STARLINK-37142","OBJECT_ID":"2026-057C","EPOCH":"2026-04-09T19:52:04.753920","MEAN_MOTION":15.80884489,"ECCENTRICITY":0.0001436,"INCLINATION":97.2842,"RA_OF_ASC_NODE":223.7776,"ARG_OF_PERICENTER":75.487,"MEAN_ANOMALY":284.6557,"EPHEMERIS_TYPE":0,"CLASSIFICATION_TYPE":"U","NORAD_CAT_ID":68296,"ELEMENT_SET_NO":999,"REV_AT_EPOCH":318,"BSTAR":0.0012991,"MEAN_MOTION_DOT":0.00256962,"MEAN_MOTION_DDOT":0},{"OBJECT_NAME":"STARLINK-37115","OBJECT_ID":"2026-057D","EPOCH":"2026-04-09T19:53:08.936160","MEAN_MOTION":15.80947863,"ECCENTRICITY":0.0002977,"INCLINATION":97.2843,"RA_OF_ASC_NODE":223.7756,"ARG_OF_PERICENTER":41.744,"MEAN_ANOMALY":318.4055,"EPHEMERIS_TYPE":0,"CLASSIFICATION_TYPE":"U","NORAD_CAT_ID":68297,"ELEMENT_SET_NO":999,"REV_AT_EPOCH":318,"BSTAR":0.0013293,"MEAN_MOTION_DOT":0.00263952,"MEAN_MOTION_DDOT":0},{"OBJECT_NAME":"STARLINK-36355","OBJECT_ID":"2026-057E","EPOCH":"2026-04-09T19:54:14.723712","MEAN_MOTION":15.80844329,"ECCENTRICITY":0.0001106,"INCLINATION":97.2842,"RA_OF_ASC_NODE":223.7754,"ARG_OF_PERICENTER":82.7193,"MEAN_ANOMALY":277.4201,"EPHEMERIS_TYPE":0,"CLASSIFICATION_TYPE":"U","NORAD_CAT_ID":68298,"ELEMENT_SET_NO":999,"REV_AT_EPOCH":318,"BSTAR":0.00082401,"MEAN_MOTION_DOT":0.00160846,"MEAN_MOTION_DDOT":0},{"OBJECT_NAME":"STARLINK-37118","OBJECT_ID":"2026-057F","EPOCH":"2026-04-09T19:49:54.984576","MEAN_MOTION":15.80883193,"ECCENTRICITY":0.0001354,"INCLINATION":97.2844,"RA_OF_ASC_NODE":223.7786,"ARG_OF_PERICENTER":77.847,"MEAN_ANOMALY":282.295,"EPHEMERIS_TYPE":0,"CLASSIFICATION_TYPE":"U","NORAD_CAT_ID":68299,"ELEMENT_SET_NO":999,"REV_AT_EPOCH":318,"BSTAR":0.0013483,"MEAN_MOTION_DOT":0.00266991,"MEAN_MOTION_DDOT":0},{"OBJECT_NAME":"STARLINK-36875","OBJECT_ID":"2026-057G","EPOCH":"2026-04-09T19:50:59.832096","MEAN_MOTION":15.80858328,"ECCENTRICITY":0.0001549,"INCLINATION":97.2843,"RA_OF_ASC_NODE":223.778,"ARG_OF_PERICENTER":100.4026,"MEAN_ANOMALY":259.7417,"EPHEMERIS_TYPE":0,"CLASSIFICATION_TYPE":"U","NORAD_CAT_ID":68300,"ELEMENT_SET_NO":999,"REV_AT_EPOCH":318,"BSTAR":0.00085122,"MEAN_MOTION_DOT":0.00166376,"MEAN_MOTION_DDOT":0},{"OBJECT_NAME":"STARLINK-37099","OBJECT_ID":"2026-057H","EPOCH":"2026-04-09T19:48:50.131008","MEAN_MOTION":15.80868094,"ECCENTRICITY":0.0001094,"INCLINATION":97.2845,"RA_OF_ASC_NODE":223.7802,"ARG_OF_PERICENTER":81.7886,"MEAN_ANOMALY":278.3506,"EPHEMERIS_TYPE":0,"CLASSIFICATION_TYPE":"U","NORAD_CAT_ID":68301,"ELEMENT_SET_NO":999,"REV_AT_EPOCH":318,"BSTAR":0.0013468,"MEAN_MOTION_DOT":0.00266502,"MEAN_MOTION_DDOT":0},{"OBJECT_NAME":"STARLINK-37007","OBJECT_ID":"2026-057J","EPOCH":"2026-04-09T19:46:40.446336","MEAN_MOTION":15.80843627,"ECCENTRICITY":0.0001095,"INCLINATION":97.2847,"RA_OF_ASC_NODE":223.7814,"ARG_OF_PERICENTER":83.5156,"MEAN_ANOMALY":276.6237,"EPHEMERIS_TYPE":0,"CLASSIFICATION_TYPE":"U","NORAD_CAT_ID":68302,"ELEMENT_SET_NO":999,"REV_AT_EPOCH":318,"BSTAR":0.0010627,"MEAN_MOTION_DOT":0.00208618,"MEAN_MOTION_DDOT":0},{"OBJECT_NAME":"STARLINK-36300","OBJECT_ID":"2026-057K","EPOCH":"2026-04-09T19:47:44.882592","MEAN_MOTION":15.80857691,"ECCENTRICITY":0.0001243,"INCLINATION":97.2843,"RA_OF_ASC_NODE":223.78,"ARG_OF_PERICENTER":108.9045,"MEAN_ANOMALY":251.2358,"EPHEMERIS_TYPE":0,"CLASSIFICATION_TYPE":"U","NORAD_CAT_ID":68303,"ELEMENT_SET_NO":999,"REV_AT_EPOCH":318,"BSTAR":0.00084565,"MEAN_MOTION_DOT":0.00165257,"MEAN_MOTION_DDOT":0},{"OBJECT_NAME":"STARLINK-36849","OBJECT_ID":"2026-057L","EPOCH":"2026-04-09T19:45:35.247168","MEAN_MOTION":15.80865887,"ECCENTRICITY":0.0001627,"INCLINATION":97.2844,"RA_OF_ASC_NODE":223.7826,"ARG_OF_PERICENTER":90.965,"MEAN_ANOMALY":269.1805,"EPHEMERIS_TYPE":0,"CLASSIFICATION_TYPE":"U","NORAD_CAT_ID":68304,"ELEMENT_SET_NO":999,"REV_AT_EPOCH":318,"BSTAR":0.0010638,"MEAN_MOTION_DOT":0.00209061,"MEAN_MOTION_DDOT":0},{"OBJECT_NAME":"STARLINK-36277","OBJECT_ID":"2026-057M","EPOCH":"2026-04-09T20:00:01.999008","MEAN_MOTION":15.75190031,"ECCENTRICITY":0.0001307,"INCLINATION":97.285,"RA_OF_ASC_NODE":223.7702,"ARG_OF_PERICENTER":112.8468,"MEAN_ANOMALY":255.2083,"EPHEMERIS_TYPE":0,"CLASSIFICATION_TYPE":"U","NORAD_CAT_ID":68305,"ELEMENT_SET_NO":999,"REV_AT_EPOCH":437,"BSTAR":0.00014487,"MEAN_MOTION_DOT":0.00021533,"MEAN_MOTION_DDOT":0},{"OBJECT_NAME":"STARLINK-36307","OBJECT_ID":"2026-057N","EPOCH":"2026-04-09T19:44:30.341760","MEAN_MOTION":15.8085277,"ECCENTRICITY":0.0001582,"INCLINATION":97.2843,"RA_OF_ASC_NODE":223.7834,"ARG_OF_PERICENTER":85.387,"MEAN_ANOMALY":274.7579,"EPHEMERIS_TYPE":0,"CLASSIFICATION_TYPE":"U","NORAD_CAT_ID":68306,"ELEMENT_SET_NO":999,"REV_AT_EPOCH":318,"BSTAR":0.00089858,"MEAN_MOTION_DOT":0.00175787,"MEAN_MOTION_DDOT":0},{"OBJECT_NAME":"STARLINK-36264","OBJECT_ID":"2026-057P","EPOCH":"2026-04-09T18:11:15.645408","MEAN_MOTION":15.80371189,"ECCENTRICITY":8.05e-5,"INCLINATION":97.2843,"RA_OF_ASC_NODE":223.718,"ARG_OF_PERICENTER":81.3772,"MEAN_ANOMALY":278.7587,"EPHEMERIS_TYPE":0,"CLASSIFICATION_TYPE":"U","NORAD_CAT_ID":68307,"ELEMENT_SET_NO":999,"REV_AT_EPOCH":317,"BSTAR":-0.0024262,"MEAN_MOTION_DOT":-0.00433581,"MEAN_MOTION_DDOT":0},{"OBJECT_NAME":"STARLINK-37138","OBJECT_ID":"2026-057Q","EPOCH":"2026-04-09T19:41:15.411264","MEAN_MOTION":15.80876613,"ECCENTRICITY":0.0001404,"INCLINATION":97.2847,"RA_OF_ASC_NODE":223.7842,"ARG_OF_PERICENTER":88.519,"MEAN_ANOMALY":271.6239,"EPHEMERIS_TYPE":0,"CLASSIFICATION_TYPE":"U","NORAD_CAT_ID":68308,"ELEMENT_SET_NO":999,"REV_AT_EPOCH":318,"BSTAR":0.0011376,"MEAN_MOTION_DOT":0.00224074,"MEAN_MOTION_DDOT":0},{"OBJECT_NAME":"STARLINK-37149","OBJECT_ID":"2026-057R","EPOCH":"2026-04-09T20:00:01.999008","MEAN_MOTION":15.75470015,"ECCENTRICITY":0.0001,"INCLINATION":97.2848,"RA_OF_ASC_NODE":223.7953,"ARG_OF_PERICENTER":103.2467,"MEAN_ANOMALY":324.7025,"EPHEMERIS_TYPE":0,"CLASSIFICATION_TYPE":"U","NORAD_CAT_ID":68309,"ELEMENT_SET_NO":999,"REV_AT_EPOCH":416,"BSTAR":-0.0039368,"MEAN_MOTION_DOT":-0.00557321,"MEAN_MOTION_DDOT":0},{"OBJECT_NAME":"STARLINK-37148","OBJECT_ID":"2026-057S","EPOCH":"2026-04-09T19:38:00.782304","MEAN_MOTION":15.8086126,"ECCENTRICITY":0.0001441,"INCLINATION":97.2845,"RA_OF_ASC_NODE":223.7872,"ARG_OF_PERICENTER":106.446,"MEAN_ANOMALY":253.6966,"EPHEMERIS_TYPE":0,"CLASSIFICATION_TYPE":"U","NORAD_CAT_ID":68310,"ELEMENT_SET_NO":999,"REV_AT_EPOCH":318,"BSTAR":0.0010867,"MEAN_MOTION_DOT":0.00213626,"MEAN_MOTION_DDOT":0},{"OBJECT_NAME":"STARLINK-37140","OBJECT_ID":"2026-057T","EPOCH":"2026-04-09T19:39:05.499360","MEAN_MOTION":15.80862139,"ECCENTRICITY":9.86e-5,"INCLINATION":97.2843,"RA_OF_ASC_NODE":223.7872,"ARG_OF_PERICENTER":110.1307,"MEAN_ANOMALY":250.0068,"EPHEMERIS_TYPE":0,"CLASSIFICATION_TYPE":"U","NORAD_CAT_ID":68311,"ELEMENT_SET_NO":999,"REV_AT_EPOCH":318,"BSTAR":0.00096814,"MEAN_MOTION_DOT":0.0018979,"MEAN_MOTION_DDOT":0},{"OBJECT_NAME":"STARLINK-36854","OBJECT_ID":"2026-057U","EPOCH":"2026-04-09T19:36:55.876032","MEAN_MOTION":15.80854055,"ECCENTRICITY":0.0001254,"INCLINATION":97.2846,"RA_OF_ASC_NODE":223.7892,"ARG_OF_PERICENTER":80.4434,"MEAN_ANOMALY":279.6976,"EPHEMERIS_TYPE":0,"CLASSIFICATION_TYPE":"U","NORAD_CAT_ID":68312,"ELEMENT_SET_NO":999,"REV_AT_EPOCH":318,"BSTAR":0.00092953,"MEAN_MOTION_DOT":0.00181985,"MEAN_MOTION_DDOT":0}]
