STARLINK-37142          
1 68296U 26057C   26099.82783280  .00256962  00000+0  12991-2 0  9998
2 68296  97.2842 223.7776 0001436  75.4870 284.6557 15.80884489  3188
STARLINK-37115          
1 68297U 26057D   26099.82857565  .00263952  00000+0  13293-2 0  9990
2 68297  97.2843 223.7756 0002977  41.7440 318.4055 15.80947863  3183
STARLINK-36355          
1 68298U 26057E   26099.82933708  .00160846  00000+0  82401-3 0  9991
2 68298  97.2842 223.7754 0001106  82.7193 277.4201 15.80844329  3184
STARLINK-37118          
1 68299U 26057F   26099.82633084  .00266991  00000+0  13483-2 0  9997
2 68299  97.2844 223.7786 0001354  77.8470 282.2950 15.80883193  3187
STARLINK-36875          
1 68300U 26057G   26099.82708139  .00166376  00000+0  85122-3 0  9990
2 68300  97.2843 223.7780 0001549 100.4026 259.7417 15.80858328  3188
STARLINK-37099          
1 68301U 26057H   26099.82558022  .00266502  00000+0  13468-2 0  9990
2 68301  97.2845 223.7802 0001094  81.7886 278.3506 15.80868094  3183
STARLINK-37007          
1 68302U 26057J   26099.82407924  .00208618  00000+0  10627-2 0  9993
2 68302  97.2847 223.7814 0001095  83.5156 276.6237 15.80843627  3187
STARLINK-36300          
1 68303U 26057K   26099.82482503  .00165257  00000+0  84565-3 0  9994
2 68303  97.2843 223.7800 0001243 108.9045 251.2358 15.80857691  3182
STARLINK-36849          
1 68304U 26057L   26099.82332462  .00209061  00000+0  10638-2 0  9994
2 68304  97.2844 223.7826 0001627  90.9650 269.1805 15.80865887  3181
STARLINK-36277          
1 68305U 26057M   26099.83335647  .00021533  00000+0  14487-3 0  9997
2 68305  97.2850 223.7702 0001307 112.8468 255.2083 15.75190031  4370
STARLINK-36307          
1 68306U 26057N   26099.82257340  .00175787  00000+0  89858-3 0  9995
2 68306  97.2843 223.7834 0001582  85.3870 274.7579 15.80852770  3180
STARLINK-36264          
1 68307U 26057P   26099.75781997 -.00433581  00000+0 -24262-2 0  9996
2 68307  97.2843 223.7180 0000805  81.3772 278.7587 15.80371189  3171
STARLINK-37138          
1 68308U 26057Q   26099.82031726  .00224074  00000+0  11376-2 0  9998
2 68308  97.2847 223.7842 0001404  88.5190 271.6239 15.80876613  3189
STARLINK-37149          
1 68309U 26057R   26099.83335647 -.00557321  00000+0 -39368-2 0  9996
2 68309  97.2848 223.7953 0001000 103.2467 324.7025 15.75470015  4160
STARLINK-37148          
1 68310U 26057S   26099.81806461  .00213626  00000+0  10867-2 0  9991
2 68310  97.2845 223.7872 0001441 106.4460 253.6966 15.80861260  3183
STARLINK-37140          
1 68311U 26057T   26099.81881365  .00189790  00000+0  96814-3 0  9999
2 68311  97.2843 223.7872 0000986 110.1307 250.0068 15.80862139  3187
STARLINK-36854          
1 68312U 26057U   26099.81731338  .00181985  00000+0  92953-3 0  9992
2 68312  97.2846 223.7892 0001254  80.4434 279.6976 15.80854055  3185
